NORAD_CAT_ID,OBJECT_NAME,OBJECT_TYPE,EPOCH,MEAN_MOTION,ECCENTRICITY,INCLINATION,RA_OF_ASC_NODE,ARG_OF_PERICENTER,MEAN_ANOMALY,BSTAR,MEAN_MOTION_DOT,MEAN_MOTION_DDOT,TLE_LINE0,TLE_LINE1,TLE_LINE2,SEMIMAJOR_AXIS,PERIOD,APOGEE,PERIGEE,DECAYED
53134.0,STARLINK-4150,PAYLOAD,2024-01-09 11:55:27,15.08847065,0.0001531,53.2172,121.4378,63.9738,296.1412,-3.6404e-05,-8.67e-06,0.0,0 STARLINK-4150,1 53134U 22083C   24009.49685091 -.00000867  00000-0 -36404-4 0  9992,2 53134  53.2172 121.4378 0001531  63.9738 296.1412 15.08847065 81929,6917.859,95.437,540.783,538.665,0.0
53134.0,STARLINK-4150,PAYLOAD,2024-01-09 15:06:13,15.08852687,0.0001317,53.2171,120.8381,80.5443,279.5698,0.00012483,1.7e-05,0.0,0 STARLINK-4150,1 53134U 22083C   24009.62932043  .00001700  00000-0  12483-3 0  9994,2 53134  53.2171 120.8381 0001317  80.5443 279.5698 15.08852687 82574,6917.842,95.437,540.618,538.796,0.0
53134.0,STARLINK-4150,PAYLOAD,2024-01-10 10:10:52,15.08837699,0.0003334,53.2155,117.2759,43.4946,316.6309,-2.0182e-05,-6.1e-06,0.0,0 STARLINK-4150,1 53134U 22083C   24010.42422146 -.00000610  00000-0 -20182-4 0  9999,2 53134  53.2155 117.2759 0003334  43.4946 316.6309 15.08837699 82693,6917.887,95.438,542.059,537.446,0.0
53134.0,STARLINK-4150,PAYLOAD,2024-01-10 13:21:38,15.08843588,0.000149,53.2163,116.6762,71.1779,288.9375,-2.2552e-05,-6.47e-06,0.0,0 STARLINK-4150,1 53134U 22083C   24010.55669118 -.00000647  00000-0 -22552-4 0  9998,2 53134  53.2163 116.6762 0001490  71.1779 288.9375 15.08843588 82713,6917.869,95.437,540.765,538.704,0.0
53134.0,STARLINK-4150,PAYLOAD,2024-01-11 13:12:24,15.08848807,0.0001261,53.2155,112.2182,62.0731,298.0388,7.4213e-05,8.94e-06,0.0,0 STARLINK-4150,1 53134U 22083C   24011.55028291  .00000894  00000-0  74213-4 0  9993,2 53134  53.2155 112.2182 0001261  62.0731 298.0388 15.08848807 82237,6917.853,95.437,540.591,538.846,0.0
53134.0,STARLINK-4150,PAYLOAD,2024-01-12 11:27:49,15.08835443,0.0001337,53.2162,108.0521,93.9477,266.1668,-3.2514e-06,-3.4e-06,0.0,0 STARLINK-4150,1 53134U 22083C   24012.47765494 -.00000340  00000-0 -32514-5 0  9995,2 53134  53.2162 108.0521 0001337  93.9477 266.1668 15.08835443 83004,6917.894,95.438,540.684,538.834,0.0
53134.0,STARLINK-4150,PAYLOAD,2024-01-13 12:53:59,15.08846538,0.000129,53.2162,103.2947,99.3623,260.7516,2.185e-05,6e-07,0.0,0 STARLINK-4150,1 53134U 22083C   24013.53749004  .00000060  00000-0  21850-4 0  9999,2 53134  53.2162 103.2947 0001290  99.3623 260.7516 15.08846538 82530,6917.86,95.437,540.618,538.833,0.0
53134.0,STARLINK-4150,PAYLOAD,2024-01-14 11:09:23,15.0883456,0.0001378,53.2164,99.1315,91.3012,268.8138,7.3977e-05,8.89e-06,0.0,0 STARLINK-4150,1 53134U 22083C   24014.46485915  .00000889  00000-0  73977-4 0  9996,2 53134  53.2164  99.1315 0001378  91.3012 268.8138 15.08834560 83302,6917.897,95.438,540.715,538.809,0.0
53134.0,STARLINK-4150,PAYLOAD,2024-01-14 15:55:32,15.08838861,0.0001415,53.2166,98.238,95.077,265.0384,0.00010074,1.316e-05,0.0,0 STARLINK-4150,1 53134U 22083C   24014.66357605  .00001316  00000-0  10074-3 0  9996,2 53134  53.2166  98.2380 0001415  95.0770 265.0384 15.08838861 82703,6917.884,95.438,540.728,538.77,0.0
53134.0,STARLINK-4150,PAYLOAD,2024-01-15 12:35:33,15.0885016,0.0001473,53.2174,94.3702,85.1475,274.9685,9.0968e-05,1.16e-05,0.0,0 STARLINK-4150,1 53134U 22083C   24015.52469088  .00001160  00000-0  90968-4 0  9999,2 53134  53.2174  94.3702 0001473  85.1475 274.9685 15.08850160 83466,6917.849,95.437,540.733,538.695,0.0
53134.0,STARLINK-4150,PAYLOAD,2024-01-16 04:29:25,15.08833648,0.0001347,53.2172,91.3983,96.9729,263.1417,-2.2103e-05,-6.4e-06,0.0,0 STARLINK-4150,1 53134U 22083C   24016.18710588 -.00000640  00000-0 -22103-4 0  9996,2 53134  53.2172  91.3983 0001347  96.9729 263.1417 15.08833648 83560,6917.9,95.438,540.697,538.833,0.0
53134.0,STARLINK-4150,PAYLOAD,2024-01-16 12:26:21,15.08841856,0.0001468,53.217,89.9134,85.5549,274.5611,3.6095e-05,2.87e-06,0.0,0 STARLINK-4150,1 53134U 22083C   24016.51829995  .00000287  00000-0  36095-4 0  9996,2 53134  53.2170  89.9134 0001468  85.5549 274.5611 15.08841856 83615,6917.875,95.437,540.755,538.724,0.0
53134.0,STARLINK-4150,PAYLOAD,2024-01-16 14:01:43,15.08844839,0.0001466,53.217,89.615,91.6459,268.4701,6.9632e-05,8.21e-06,0.0,0 STARLINK-4150,1 53134U 22083C   24016.58453679  .00000821  00000-0  69632-4 0  9992,2 53134  53.2170  89.6150 0001466  91.6459 268.4701 15.08844839 82992,6917.866,95.437,540.745,538.716,0.0
53134.0,STARLINK-4150,PAYLOAD,2024-01-16 23:34:03,15.08833733,0.0001603,53.2176,87.8312,120.7346,239.3804,-9.2226e-06,-4.35e-06,0.0,0 STARLINK-4150,1 53134U 22083C   24016.98198494 -.00000435  00000-0 -92226-5 0  9996,2 53134  53.2176  87.8312 0001603 120.7346 239.3804 15.08833733 83689,6917.9,95.438,540.873,538.656,0.0
53134.0,STARLINK-4150,PAYLOAD,2024-01-17 10:41:45,15.08842906,0.0001459,53.2171,85.7521,95.8983,264.2175,-7.4638e-05,-1.476e-05,0.0,0 STARLINK-4150,1 53134U 22083C   24017.44566391 -.00001476  00000-0 -74638-4 0  9995,2 53134  53.2171  85.7521 0001459  95.8983 264.2175 15.08842906 83120,6917.872,95.437,540.746,538.727,0.0
53134.0,STARLINK-4150,PAYLOAD,2024-01-18 10:32:31,15.08844478,0.0001586,53.2168,81.2922,85.8155,274.3018,0.00014287,1.987e-05,0.0,0 STARLINK-4150,1 53134U 22083C   24018.43925867  .00001987  00000-0  14287-3 0  9990,2 53134  53.2168  81.2922 0001586  85.8155 274.3018 15.08844478 83273,6917.867,95.437,540.829,538.635,0.0
53134.0,STARLINK-4150,PAYLOAD,2024-01-18 23:15:38,15.08810368,0.0001746,53.2169,78.9149,90.7902,269.329,0.000617,9.537e-05,0.0,0 STARLINK-4150,1 53134U 22083C   24018.96919296  .00009537  00000-0  61700-3 0  9998,2 53134  53.2169  78.9149 0001746  90.7902 269.3290 15.08810368 83986,6917.971,95.439,541.044,538.628,0.0
53134.0,STARLINK-4150,PAYLOAD,2024-01-19 10:23:19,15.08848997,0.0001668,53.2174,76.8327,93.5626,266.5557,-6.9725e-05,-1.398e-05,0.0,0 STARLINK-4150,1 53134U 22083C   24019.43285910 -.00001398  00000-0 -69725-4 0  9995,2 53134  53.2174  76.8327 0001668  93.5626 266.5557 15.08848997 84057,6917.853,95.437,540.872,538.564,0.0
53134.0,STARLINK-4150,PAYLOAD,2024-01-19 13:34:05,15.08844877,0.0001528,53.2171,76.2326,98.8345,261.2821,6.766e-05,7.89e-06,0.0,0 STARLINK-4150,1 53134U 22083C   24019.56533782  .00000789  00000-0  67660-4 0  9999,2 53134  53.2171  76.2326 0001528  98.8345 261.2821 15.08844877 83449,6917.865,95.437,540.788,538.673,0.0
53134.0,STARLINK-4150,PAYLOAD,2024-01-20 03:52:34,15.08830845,0.0001145,53.2157,73.5531,113.528,246.5833,1.5493e-05,-4.1e-07,0.0,0 STARLINK-4150,1 53134U 22083C   24020.16150729 -.00000041  00000-0  15493-4 0  9992,2 53134  53.2157  73.5531 0001145 113.5280 246.5833 15.08830845 84168,6917.908,95.438,540.565,538.981,0.0
53134.0,STARLINK-4150,PAYLOAD,2024-01-20 10:14:06,15.08840916,0.0001731,53.217,72.3719,91.2356,268.8835,2.4459e-05,1.01e-06,0.0,0 STARLINK-4150,1 53134U 22083C   24020.42646316  .00000101  00000-0  24459-4 0  9991,2 53134  53.2170  72.3719 0001731  91.2356 268.8835 15.08840916 84209,6917.878,95.437,540.94,538.545,0.0
53134.0,STARLINK-4150,PAYLOAD,2024-01-20 13:24:52,15.08846551,0.0001614,53.2161,71.774,91.1146,269.0031,2.7922e-05,1.56e-06,0.0,0 STARLINK-4150,1 53134U 22083C   24020.55893872  .00000156  00000-0  27922-4 0  9994,2 53134  53.2161  71.7740 0001614  91.1146 269.0031 15.08846551 83595,6917.86,95.437,540.842,538.609,0.0
53134.0,STARLINK-4150,PAYLOAD,2024-01-21 06:54:07,15.08834422,0.0002813,53.2163,68.4978,140.7691,219.3505,6.3082e-05,7.15e-06,0.0,0 STARLINK-4150,1 53134U 22083C   24021.28758338  .00000715  00000-0  63082-4 0  9990,2 53134  53.2163  68.4978 0002813 140.7691 219.3505 15.08834422 83702,6917.897,95.438,541.708,537.816,0.0
53134.0,STARLINK-4150,PAYLOAD,2024-01-21 10:04:53,15.08837426,0.0001846,53.2171,67.9114,94.5757,265.5446,7.1092e-05,8.43e-06,0.0,0 STARLINK-4150,1 53134U 22083C   24021.42006614  .00000843  00000-0  71092-4 0  9991,2 53134  53.2171  67.9114 0001846  94.5757 265.5446 15.08837426 83727,6917.888,95.438,541.03,538.476,0.0
53134.0,STARLINK-4150,PAYLOAD,2024-01-21 22:47:58,15.08834733,0.000176,53.2165,65.5312,91.7008,268.4186,0.00012129,1.643e-05,0.0,0 STARLINK-4150,1 53134U 22083C   24021.94998671  .00001643  00000-0  12129-3 0  9995,2 53134  53.2165  65.5312 0001760  91.7008 268.4186 15.08834733 84437,6917.896,95.438,540.979,538.544,0.0
53134.0,STARLINK-4150,PAYLOAD,2024-01-22 06:44:54,15.08832278,0.0001797,53.2171,64.0451,98.692,261.4275,5.5338e-05,5.93e-06,0.0,0 STARLINK-4150,1 53134U 22083C   24022.28119209  .00000593  00000-0  55338-4 0  9998,2 53134  53.2171  64.0451 0001797  98.6920 261.4275 15.08832278 83850,6917.904,95.438,541.012,538.526,0.0
53134.0,STARLINK-4150,PAYLOAD,2024-01-22 09:55:41,15.08833605,0.0001604,53.217,63.4494,94.0549,266.0626,7.6535e-05,9.3e-06,0.0,0 STARLINK-4150,1 53134U 22083C   24022.41367139  .00000930  00000-0  76535-4 0  9997,2 53134  53.2170  63.4494 0001604  94.0549 266.0626 15.08833605 83871,6917.9,95.438,540.875,538.655,0.0
53134.0,STARLINK-4150,PAYLOAD,2024-01-23 06:35:41,15.08834205,0.0001768,53.2181,59.5864,101.8774,258.2416,0.00017726,2.534e-05,0.0,0 STARLINK-4150,1 53134U 22083C   24023.27479079  .00002534  00000-0  17726-3 0  9997,2 53134  53.2181  59.5864 0001768 101.8774 258.2416 15.08834205 84001,6917.898,95.438,540.986,538.54,0.0
53134.0,STARLINK-4150,PAYLOAD,2024-01-23 09:46:27,15.0885282,0.0001665,53.2176,58.9908,95.3605,264.7577,0.0002124,3.095e-05,0.0,0 STARLINK-4150,1 53134U 22083C   24023.40725792  .00003095  00000-0  21240-3 0  9997,2 53134  53.2176  58.9908 0001665  95.3605 264.7577 15.08852820 84657,6917.841,95.437,540.858,538.554,0.0
53134.0,STARLINK-4150,PAYLOAD,2024-01-23 20:54:09,15.08846003,0.0001849,53.2187,56.9136,78.5225,281.5975,0.00011133,1.484e-05,0.0,0 STARLINK-4150,1 53134U 22083C   24023.87094449  .00001484  00000-0  11133-3 0  9996,2 53134  53.2187  56.9136 0001849  78.5225 281.5975 15.08846003 84098,6917.862,95.437,541.006,538.448,0.0
